ONEWEB-0116             
1 48046U 21025E   26001.52622497 -.00000222  00000+0 -64187-3 0  9994
2 48046  87.8990 353.3306 0001827  83.4895 276.6443 13.13468783231779
ONEWEB-0150             
1 48047U 21025F   26001.50252849  .00000343  00000+0  90454-3 0  9991
2 48047  87.8992 353.3313 0001780  93.4955 266.6377 13.13469910231662
ONEWEB-0107             
1 48048U 21025G   26001.50422161  .00000373  00000+0  98582-3 0  9991
2 48048  87.8990 353.3272 0001478  92.5573 267.5726 13.13468745231646
ONEWEB-0101             
1 48049U 21025H   26001.46696921 -.00000208  00000+0 -60549-3 0  9995
2 48049  87.8982 353.3665 0001570  85.2356 274.8952 13.13469458231616
ONEWEB-0113             
1 48050U 21025J   26001.47554379 -.00000011  00000+0 -65505-4 0  9998
2 48050  87.8986 353.2909 0001913  87.5259 272.6090 13.13986975231718
ONEWEB-0112             
1 48051U 21025K   26001.50929222  .00000302  00000+0  79077-3 0  9995
2 48051  87.8989 353.3235 0001737  88.2545 271.8784 13.13468466231716
ONEWEB-0156             
1 48052U 21025L   26001.51776898  .00000003  00000+0 -26042-4 0  9990
2 48052  87.8988 353.3331 0001645  90.4423 269.6895 13.13470188231690
ONEWEB-0161             
1 48053U 21025M   26001.49237203  .00000367  00000+0  97053-3 0  9991
2 48053  87.8983 353.3526 0001536  88.3763 271.7542 13.13469512231629
